STARLINK-30874          
1 58227U 23170X   26068.37761980 -.00003268  00000+0 -11224-3 0  9993
2 58227  43.0017 195.8134 0001718 286.1371  73.9291 15.26726036130257
TRANSPORTER-12 OBJECT BA
1 62657U 25009BA  26068.70118713  .00011330  00000+0  42733-3 0  9991
2 62657  97.3985 151.1390 0000403 234.6623 125.4579 15.27214003 63739
